IRIDIUM 36              
1 24967U 97056C   24190.85127202  .00000701  00000+0  23062-3 0  9991
2 24967  86.3981 317.1969 0002273  90.1127 270.0331 14.36879767402904
IRIDIUM 39              
1 25042U 97069D   24190.91474943  .00000955  00000+0  25094-3 0  9992
2 25042  86.3927 358.2494 0018822  18.8343 341.3553 14.48048509399269
IRIDIUM 38              
1 25043U 97069E   24190.92160990  .00000618  00000+0  20055-3 0  9996
2 25043  86.3960  17.5280 0003466 114.9965 245.1593 14.37326157396630
IRIDIUM 42              
1 25077U 97077A   24190.93052409  .00000566  00000+0  18946-3 0  9996
2 25077  86.3960  23.2702 0002374 103.6344 256.5117 14.35619912391931
IRIDIUM 44              
1 25078U 97077B   24190.90254599  .00000652  00000+0  20301-3 0  9992
2 25078  86.3963   6.1324 0003950  83.4193 276.7455 14.39465825394302
IRIDIUM 45              
1 25104U 97082A   24190.77953932  .00012521  00000+0  68335-3 0  9997
2 25104  86.3720 212.1099 0158983 159.8151 200.9469 15.03915380400108
IRIDIUM 24              
1 25105U 97082B   24190.82507966  .00000617  00000+0  18465-3 0  9998
2 25105  86.3909 225.7127 0013381 125.9743 234.2699 14.41251577393741
IRIDIUM 51              
1 25262U 98018A   24190.55950946  .00019587  00000+0  87182-3 0  9990
2 25262  86.3948 221.9671 0145383 104.1754 257.5687 15.12233643394647
